BEESAT-3
1 39134U 13015E   14072.20880555  .00010707  00000-0  78783-3 0  5242
2 39134 064.8777 082.0280 0019234 325.1553 034.8306 15.03615841 49229
BEESAT-2
1 39136U 13015G   14071.50712340  .00009393  00000-0  70043-3 0  5141
2 39136 064.8744 084.4619 0019416 325.3583 034.6272 15.03201375 49115
LO-75
1 39382U 13064C   14072.06021332  .00070422  00000-0  22878-2 0  1480
2 39382 040.4988 308.7874 0010766 280.3924 079.5634 15.30902098 17251
ZACUBE-1
1 39417U 13066B   14072.64173778  .00003371  00000-0  46310-3 0  2430
2 39417 097.7831 146.5318 0062828 192.2116 167.7586 14.77634349 16585
TRITON-1
1 39427U 13066M   14072.44560195  .00003102  00000-0  53054-3 0   952
2 39427 097.7709 144.0971 0118651 194.5194 165.2587 14.64985930 16377
DELFIN3XT
1 39428U 13066N   14072.43095249  .00004877  00000-0  85751-3 0   998
2 39428 097.7694 143.6501 0130002 195.3489 164.3724 14.62642897 16334
GOMX-1
1 39430U 13066Q   14072.75946796  .00002850  00000-0  55154-3 0  3028
2 39430 097.7668 142.9013 0157268 197.0138 162.5730 14.56430376 16327
$50SAT
1 39436U 13066W   14072.19559658  .00022292  00000-0  24759-2 0  1272
2 39436 097.7851 147.4496 0029439 204.4008 155.5577 14.86888490 16596
LO-74
1 39440U 13066AA  14072.41149626  .00003299  00000-0  49740-3 0   938
2 39440 097.7781 145.4189 0084509 192.6545 167.2539 14.72606931 16482
PUCPSAT-1
1 39442U 13066AC  14072.13414687  .00005116  00000-0  59395-3 0   905
2 39442 097.7874 147.3900 0034865 199.5037 160.4803 14.85385339 15366
LITSAT-1
1 39568U 98067EM  14072.76506024  .00155253  00000-0  22041-2 0   101
2 39568 051.6466 212.3235 0005965 300.9023 200.3267 15.55360598  2077
LITUANSAT
1 39569U 98067EN  14072.83185112  .00099721  00000-0  15001-2 0   487
2 39569 051.6479 212.0550 0005330 293.1767 189.4558 15.54019405  2081
SHINAISAT
1 39572U 14009A   14072.73881896  .00051475  00000-0  63070-3 0   277
2 39572 065.0125 012.1302 0011685 282.2781 077.7575 15.59940006  2174
OPUSAT
1 39575U 14009D   14072.98643444  .00110847  00000-0  11953-2 0   318
2 39575 065.0161 011.1050 0003989 317.4251 118.6770 15.63091717  2215
TEIKYOSAT
1 39576U 14009E   14072.99731425  .00068300  00000-0  79359-3 0   262
2 39576 065.0162 011.1707 0006169 296.7655 137.4669 15.61332240  2219
IFT-1
1 39577U 14009F   14072.59174076  .00075486  00000-0  84179-3 0   272
2 39577 065.0123 012.4827 0005131 320.5079 039.6214 15.62456726  2157
INVADER
1 39578U 14009G   14072.83908163  .00169401  00000-0  17152-2 0   235
2 39578 065.0084 011.5675 0004252 297.4910 062.5922 15.64487193  2193
STARS-II
1 39579U 14009H   14072.78662513  .00235695  00000-0  24249-2 0   218
2 39579 065.0123 011.8336 0007843 273.7690 086.2575 15.63838067  2181
